HXMT (HUIYAN)           
1 42758U 17034A   26067.32953326  .00009885  00000+0  48953-3 0  9996
2 42758  43.0154  24.2346 0032764 227.7034 132.1036 15.17442317482334
SAOCOM 1A               
1 43641U 18076A   26067.61279870  .00001022  00000+0  13491-3 0  9996
2 43641  97.8890 255.8003 0001290  85.7880 274.3480 14.82169479401208
H-2A R/B                
1 43682U 18084L   26067.56429336  .00029350  00000+0  69756-3 0  9997
2 43682  98.8730 284.7117 0025554  29.1244 331.1417 15.41293440405601
SAOCOM 1B               
1 46265U 20059A   26065.95626301  .00001349  00000+0  17595-3 0  9996
2 46265  97.8885 253.2654 0001504  81.2285 278.9098 14.82173062298346
CSS (TIANHE)            
1 48274U 21035A   26067.62769441  .00027939  00000+0  33080-3 0  9992
2 48274  41.4663 214.6233 0006946 266.6705  93.3339 15.60596510277441
COSMOS 2550             
1 48865U 21056A   26067.47400841 -.00000192  00000+0 -13338-7 0  9992
2 48865  67.1451  44.6088 0008369 269.6014  90.4182 15.33829151263273
CZ-2C R/B               
1 52794U 22058K   26067.09787482  .00047047  00000+0  68669-3 0  9999
2 52794  50.1897 326.4776 0042176 194.0797 165.9000 15.54100851209889
CZ-2C R/B               
1 54039U 22132E   26067.53871744  .00052505  00000+0  60049-3 0  9999
2 54039  97.2969  70.8203 0020689  95.1831 265.1789 15.61734579190193
GSLV R/B                
1 54149U 22138AN  26067.31685051  .00004751  00000+0  41097-3 0  9999
2 54149  87.3879 166.8219 0022873 151.5173 208.7314 14.96764911183729
XRISM                   
1 57800U 23137A   26067.65006105  .00008177  00000+0  46529-3 0  9991
2 57800  31.0020 290.3882 0008011  27.6079 332.4983 15.11488748137630
ACS3                    
1 59588U 24077B   26067.56192478  .00033385  00000+0  26821-1 0  9999
2 59588  97.2080   8.9277 0058970  79.6632 281.1172 13.89562302 94046
SZ-21 MODULE            
1 66515U 25246C   26067.48169489  .00048562  00000+0  41839-3 0  9994
2 66515  41.4736 210.7960 0001376 295.9249  64.1451 15.68439645 17888
